NORAD_CAT_ID,OBJECT_NAME,OBJECT_TYPE,EPOCH,MEAN_MOTION,ECCENTRICITY,INCLINATION,RA_OF_ASC_NODE,ARG_OF_PERICENTER,MEAN_ANOMALY,BSTAR,MEAN_MOTION_DOT,MEAN_MOTION_DDOT,TLE_LINE0,TLE_LINE1,TLE_LINE2,SEMIMAJOR_AXIS,PERIOD,APOGEE,PERIGEE,DECAYED
53904.0,STARLINK-4787,PAYLOAD,2023-06-04 17:50:44,15.08835474,9.73e-05,53.2155,173.0571,95.4691,264.6412,3.0415e-05,1.96e-06,0.0,0 STARLINK-4787,1 53904U 22119U   23155.74356597  .00000196  00000-0  30415-4 0  9991,2 53904  53.2155 173.0571 0000973  95.4691 264.6412 15.08835474 39373,6917.894,95.438,540.432,539.086,0.0
53904.0,STARLINK-4787,PAYLOAD,2023-06-05 01:47:39,15.08858158,0.0001249,53.2151,171.5692,107.4265,252.6864,-0.00023782,-4.073e-05,0.0,0 STARLINK-4787,1 53904U 22119U   23156.07476422 -.00004073  00000-0 -23782-3 0  9996,2 53904  53.2151 171.5692 0001249 107.4265 252.6864 15.08858158 39006,6917.825,95.436,540.554,538.826,0.0
53904.0,STARLINK-4787,PAYLOAD,2023-06-05 09:44:35,15.08843979,0.0001142,53.2151,170.0826,99.6803,260.4318,-6.0315e-05,-1.248e-05,0.0,0 STARLINK-4787,1 53904U 22119U   23156.40596477 -.00001248  00000-0 -60315-4 0  9991,2 53904  53.2151 170.0826 0001142  99.6803 260.4318 15.08843979 39052,6917.868,95.437,540.523,538.943,0.0
53904.0,STARLINK-4787,PAYLOAD,2023-06-05 11:19:58,15.08835535,9.46e-05,53.2152,169.786,88.6166,271.4934,5.4163e-05,5.74e-06,0.0,0 STARLINK-4787,1 53904U 22119U   23156.47220686  .00000574  00000-0  54163-4 0  9997,2 53904  53.2152 169.7860 0000946  88.6166 271.4934 15.08835535 39489,6917.894,95.438,540.413,539.105,0.0
53904.0,STARLINK-4787,PAYLOAD,2023-06-06 00:03:04,15.08834725,0.0001104,53.2151,167.407,89.1814,270.9304,1.5789e-05,-3.7e-07,0.0,0 STARLINK-4787,1 53904U 22119U   23157.00213008 -.00000037  00000-0  15789-4 0  9993,2 53904  53.2151 167.4070 0001104  89.1814 270.9304 15.08834725 39147,6917.897,95.438,540.525,538.998,0.0
53904.0,STARLINK-4787,PAYLOAD,2023-06-06 09:35:22,15.0883492,0.0001028,53.215,165.6228,86.8975,273.2135,2.1518e-05,5.5e-07,0.0,0 STARLINK-4787,1 53904U 22119U   23157.39957087  .00000055  00000-0  21518-4 0  9993,2 53904  53.2150 165.6228 0001028  86.8975 273.2135 15.08834920 39626,6917.896,95.438,540.472,539.05,0.0
53904.0,STARLINK-4787,PAYLOAD,2023-06-07 09:26:09,15.08840514,9.32e-05,53.215,161.1623,80.1665,279.9432,4.5474e-05,4.36e-06,0.0,0 STARLINK-4787,1 53904U 22119U   23158.39316760  .00000436  00000-0  45474-4 0  9991,2 53904  53.2150 161.1623 0000932  80.1665 279.9432 15.08840514 39351,6917.879,95.438,540.389,539.099,0.0
53904.0,STARLINK-4787,PAYLOAD,2023-06-08 07:41:33,15.08839174,9.27e-05,53.215,156.999,82.4063,277.7035,5.5422e-05,5.94e-06,0.0,0 STARLINK-4787,1 53904U 22119U   23159.32052879  .00000594  00000-0  55422-4 0  9992,2 53904  53.2150 156.9990 0000927  82.4063 277.7035 15.08839174 39918,6917.883,95.438,540.389,539.107,0.0
53904.0,STARLINK-4787,PAYLOAD,2023-06-08 23:35:25,15.08841168,9.73e-05,53.2149,154.0258,82.8618,277.2485,2.431e-05,9.9e-07,0.0,0 STARLINK-4787,1 53904U 22119U   23159.98292856  .00000099  00000-0  24310-4 0  9997,2 53904  53.2149 154.0258 0000973  82.8618 277.2485 15.08841168 39597,6917.877,95.437,540.415,539.069,0.0
53904.0,STARLINK-4787,PAYLOAD,2023-06-09 09:07:43,15.08843663,9.74e-05,53.215,152.2411,85.2435,274.8668,4.1994e-05,3.81e-06,0.0,0 STARLINK-4787,1 53904U 22119U   23160.38036564  .00000381  00000-0  41994-4 0  9996,2 53904  53.2150 152.2411 0000974  85.2435 274.8668 15.08843663 40078,6917.869,95.437,540.408,539.06,0.0
53904.0,STARLINK-4787,PAYLOAD,2023-06-09 17:04:39,15.08839971,9.58e-05,53.2151,150.7534,87.6543,272.4559,2.3538e-05,8.7e-07,0.0,0 STARLINK-4787,1 53904U 22119U   23160.71156790  .00000087  00000-0  23538-4 0  9994,2 53904  53.2151 150.7534 0000958  87.6543 272.4559 15.08839971 40122,6917.88,95.438,540.408,539.083,0.0
53904.0,STARLINK-4787,PAYLOAD,2023-06-09 21:50:49,15.08835977,0.0001019,53.2148,149.8618,88.7501,271.3608,1.9811e-06,-2.56e-06,0.0,0 STARLINK-4787,1 53904U 22119U   23160.91029147 -.00000256  00000-0  19811-5 0  9990,2 53904  53.2148 149.8618 0001019  88.7501 271.3608 15.08835977 39735,6917.893,95.438,540.463,539.053,0.0
53904.0,STARLINK-4787,PAYLOAD,2023-06-10 10:33:54,15.08839891,0.0001038,53.2149,147.483,87.5683,272.5428,3.4034e-05,2.54e-06,0.0,0 STARLINK-4787,1 53904U 22119U   23161.44020856  .00000254  00000-0  34034-4 0  9997,2 53904  53.2149 147.4830 0001038  87.5683 272.5428 15.08839891 40234,6917.881,95.438,540.464,539.028,0.0
53904.0,STARLINK-4787,PAYLOAD,2023-06-10 23:16:59,15.08837537,0.0001072,53.2148,145.1039,88.2714,271.8401,-1.3002e-05,-4.95e-06,0.0,0 STARLINK-4787,1 53904U 22119U   23161.97013213 -.00000495  00000-0 -13002-4 0  9995,2 53904  53.2148 145.1039 0001072  88.2714 271.8401 15.08837537 39898,6917.888,95.438,540.495,539.011,0.0
53904.0,STARLINK-4787,PAYLOAD,2023-06-11 10:24:41,15.08841824,0.0001079,53.2152,143.0221,88.3168,271.7947,2.7679e-05,1.53e-06,0.0,0 STARLINK-4787,1 53904U 22119U   23162.43380829  .00000153  00000-0  27679-4 0  9991,2 53904  53.2152 143.0221 0001079  88.3168 271.7947 15.08841824 40388,6917.875,95.437,540.486,538.993,0.0
53904.0,STARLINK-4787,PAYLOAD,2023-06-11 15:10:50,15.08835305,0.0001135,53.2155,142.1298,89.3288,270.7834,-6.3095e-06,-3.88e-06,0.0,0 STARLINK-4787,1 53904U 22119U   23162.63253370 -.00000388  00000-0 -63095-5 0  9998,2 53904  53.2155 142.1298 0001135  89.3288 270.7834 15.08835305 40417,6917.895,95.438,540.545,538.975,0.0
53904.0,STARLINK-4787,PAYLOAD,2023-06-12 02:18:32,15.08836695,0.0001092,53.2155,140.0483,87.2538,272.8579,4.1754e-05,3.77e-06,0.0,0 STARLINK-4787,1 53904U 22119U   23163.09621211  .00000377  00000-0  41754-4 0  9995,2 53904  53.2155 140.0483 0001092  87.2538 272.8579 15.08836695 40486,6917.89,95.438,540.511,539.0,0.0
53904.0,STARLINK-4787,PAYLOAD,2023-06-12 15:01:37,15.08836548,0.0001085,53.2158,137.6693,85.254,274.8576,1.8893e-05,1.3e-07,0.0,0 STARLINK-4787,1 53904U 22119U   23163.62613384  .00000013  00000-0  18893-4 0  9991,2 53904  53.2158 137.6693 0001085  85.2540 274.8576 15.08836548 40146,6917.891,95.438,540.507,539.005,0.0
53904.0,STARLINK-4787,PAYLOAD,2023-06-12 22:58:34,15.08829475,0.0001182,53.2166,136.1819,86.1901,273.9226,-1.3488e-05,-5.02e-06,0.0,0 STARLINK-4787,1 53904U 22119U   23163.95734101 -.00000502  00000-0 -13488-4 0  9998,2 53904  53.2166 136.1819 0001182  86.1901 273.9226 15.08829475 40613,6917.913,95.438,540.595,538.96,0.0
53904.0,STARLINK-4787,PAYLOAD,2023-06-13 06:55:29,15.08833655,0.0001037,53.2161,134.6965,96.4326,263.6784,-3.4267e-06,-3.42e-06,0.0,0 STARLINK-4787,1 53904U 22119U   23164.28853863 -.00000342  00000-0 -34267-5 0  9993,2 53904  53.2161 134.6965 0001037  96.4326 263.6784 15.08833655 40662,6917.9,95.438,540.482,539.047,0.0
53904.0,STARLINK-4787,PAYLOAD,2023-06-13 21:13:58,15.08833377,0.0001019,53.2165,132.0205,99.6441,260.4666,4.6073e-05,4.45e-06,0.0,0 STARLINK-4787,1 53904U 22119U   23164.88469913  .00000445  00000-0  46073-4 0  9997,2 53904  53.2165 132.0205 0001019  99.6441 260.4666 15.08833377 40753,6917.901,95.438,540.471,539.061,0.0
53904.0,STARLINK-4787,PAYLOAD,2023-06-13 22:49:21,15.08835191,0.0001026,53.2162,131.7233,100.7895,259.3213,9.889e-06,-1.3e-06,0.0,0 STARLINK-4787,1 53904U 22119U   23164.95093927 -.00000130  00000-0  98890-5 0  9990,2 53904  53.2162 131.7233 0001026 100.7895 259.3213 15.08835191 40348,6917.895,95.438,540.47,539.05,0.0
53904.0,STARLINK-4787,PAYLOAD,2023-06-14 06:46:16,15.08840905,0.0001,53.2162,130.2363,97.3944,262.7161,5.0085e-05,5.09e-06,0.0,0 STARLINK-4787,1 53904U 22119U   23165.28213507  .00000509  00000-0  50085-4 0  9997,2 53904  53.2162 130.2363 0001000  97.3944 262.7161 15.08840905 40815,6917.878,95.437,540.434,539.051,0.0
53904.0,STARLINK-4787,PAYLOAD,2023-06-14 21:04:45,15.08834063,9.61e-05,53.2163,127.5598,99.4512,260.6589,7.7392e-05,9.44e-06,0.0,0 STARLINK-4787,1 53904U 22119U   23165.87829939  .00000944  00000-0  77392-4 0  9997,2 53904  53.2163 127.5598 0000961  99.4512 260.6589 15.08834063 40903,6917.899,95.438,540.428,539.099,0.0
53904.0,STARLINK-4787,PAYLOAD,2023-06-15 01:50:54,15.08834089,9.41e-05,53.216,126.6674,94.8573,265.2526,7.7337e-05,9.43e-06,0.0,0 STARLINK-4787,1 53904U 22119U   23166.07702020  .00000943  00000-0  77337-4 0  9999,2 53904  53.2160 126.6674 0000941  94.8573 265.2526 15.08834089 40516,6917.898,95.438,540.414,539.112,0.0
53904.0,STARLINK-4787,PAYLOAD,2023-06-15 06:37:03,15.0883831,9.48e-05,53.2161,125.7753,92.5396,267.5705,6.4032e-05,7.31e-06,0.0,0 STARLINK-4787,1 53904U 22119U   23166.27573860  .00000731  00000-0  64032-4 0  9992,2 53904  53.2161 125.7753 0000948  92.5396 267.5705 15.08838310 40964,6917.886,95.438,540.406,539.095,0.0
53904.0,STARLINK-4787,PAYLOAD,2023-06-16 03:17:04,15.08843299,9.51e-05,53.2162,121.9091,95.0729,265.0371,4.3227e-05,4e-06,0.0,0 STARLINK-4787,1 53904U 22119U   23167.13685665  .00000400  00000-0  43227-4 0  9991,2 53904  53.2162 121.9091 0000951  95.0729 265.0371 15.08843299 40672,6917.87,95.437,540.393,539.077,0.0
53904.0,STARLINK-4787,PAYLOAD,2023-06-16 20:46:18,15.08843266,0.0001028,53.216,118.6391,90.42,269.691,6.3893e-05,7.29e-06,0.0,0 STARLINK-4787,1 53904U 22119U   23167.86549376  .00000729  00000-0  63893-4 0  9994,2 53904  53.2160 118.6391 0001028  90.4200 269.6910 15.08843266 41208,6917.87,95.437,540.447,539.024,0.0
53904.0,STARLINK-4787,PAYLOAD,2023-06-17 03:07:50,15.08849415,0.0001087,53.216,117.4484,101.559,258.5525,0.00010149,1.328e-05,0.0,0 STARLINK-4787,1 53904U 22119U   23168.13044732  .00001328  00000-0  10149-3 0  9992,2 53904  53.2160 117.4484 0001087 101.5590 258.5525 15.08849415 40827,6917.852,95.437,540.469,538.965,0.0
53904.0,STARLINK-4787,PAYLOAD,2023-06-18 02:58:39,15.08832289,0.0001112,53.2156,112.9898,85.8744,274.2376,-8.763e-05,-1.682e-05,0.0,0 STARLINK-4787,1 53904U 22119U   23169.12406863 -.00001682  00000-0 -87630-4 0  9994,2 53904  53.2156 112.9898 0001112  85.8744 274.2376 15.08832289 40971,6917.904,95.438,540.538,539.0,0.0
